ARIANE 40 R/B           
1 20443U 90005H   25365.15517216  .00000564  00000+0  19319-3 0  9996
2 20443  98.3218  62.8106 0010940  55.4484 304.7735 14.39814009882942
DELTA 2 R/B(1)          
1 20453U 90008B   25365.02618281  .00072340  00000+0  10991-2 0  9997
2 20453  35.6062 262.3093 0107327 344.1232  15.6150 15.46942304915463
COSMOS 2058             
1 20465U 90010A   25365.37203848  .00007463  00000+0  44882-3 0  9991
2 20465  82.4715 114.7048 0009938 205.0039 155.0711 15.10674318931929
SL-14 R/B               
1 20466U 90010B   25365.36187435  .00000889  00000+0  10487-3 0  9993
2 20466  82.5029 331.5568 0020252 160.7478 199.4507 14.83492304918350
SL-14 R/B               
1 20511U 90018B   25365.31390514  .00000893  00000+0  10934-3 0  9993
2 20511  82.5221 287.0056 0015453 321.5280  38.4831 14.82069371912457
HST                     
1 20580U 90037B   25365.46963686  .00010435  00000+0  35945-3 0  9994
2 20580  28.4654 144.9753 0002588  81.6509 278.4380 15.28310197762869
SL-16 R/B               
1 20625U 90046B   25365.47942197  .00000205  00000+0  13060-3 0  9997
2 20625  70.9993  81.1675 0012578  41.5154 318.6922 14.14998679838744
COSMOS 2084             
1 20663U 90055A   25365.30409463  .00005075  00000+0  36532-3 0  9994
2 20663  62.7892 208.7329 0028670 177.4128 182.7126 15.05140879926023
SL-6 R/B(2)             
1 20666U 90055D   25365.46121885  .00004573  00000+0  35012-3 0  9997
2 20666  62.7835 125.7983 0014963 321.0193  38.9826 15.03181029927936
SL-8 R/B                
1 20775U 90078B   25365.37988911  .00019304  00000+0  59345-3 0  9997
2 20775  82.9055 312.6169 0369487 243.1157 113.1858 14.86605615799149
SL-8 R/B                
1 21088U 91006B   25365.36861641  .00000062  00000+0  47119-4 0  9994
2 21088  82.9409 220.8560 0021516 224.5892 309.5106 13.77492804754660
OKEAN-3                 
1 21397U 91039A   25365.50829010  .00005350  00000+0  38212-3 0  9991
2 21397  82.5160  42.8782 0013799 195.6879 164.3922 15.04246120854785
COSMOS 2151             
1 21422U 91042A   25365.50516089  .00003721  00000+0  29868-3 0  9990
2 21422  82.4967 149.4188 0011296 291.9237  68.0786 14.99775732852976
SL-14 R/B               
1 21423U 91042B   25365.28510860  .00000808  00000+0  99282-4 0  9998
2 21423  82.4936 284.3343 0018541 104.4572 255.8701 14.81758843842949
ERS-1                   
1 21574U 91050A   25365.50581920  .00000664  00000+0  22691-3 0  9993
2 21574  98.7898  17.0294 0032724  45.9298 314.4575 14.39382049805924
ARIANE 40 R/B           
1 21610U 91050F   25365.37205197  .00000665  00000+0  21184-3 0  9995
2 21610  98.2140  55.1279 0001985 285.4850  74.6121 14.42830864809143
INTERCOSMOS 25          
1 21819U 91086A   25365.37676242  .00002602  00000+0  51823-3 0  9994
2 21819  82.6077 351.3025 1486124 264.1994  78.8382 12.11806501488419
SL-8 R/B                
1 21876U 92008B   25365.37785365  .00000165  00000+0  15445-3 0  9991
2 21876  82.9279 318.5835 0034017 327.6524 143.5923 13.75963507700022
SL-8 R/B                
1 21938U 92020B   25365.53487301  .00000242  00000+0  23432-3 0  9992
2 21938  82.9289 204.3602 0029974 126.6282 292.6798 13.75532874691765
USA 81                  
1 21949U 92023A   25365.47695378  .00000394  00000+0  13865-3 0  9992
2 21949  85.0087 170.7699 0001083 101.0939 259.0376 14.32335436 85020
COSMOS 2219             
1 22219U 92076A   25365.47051110  .00000440  00000+0  25550-3 0  9997
2 22219  71.0598 160.6776 0019867 301.0926  58.8247 14.14073974708732
SL-16 R/B               
1 22220U 92076B   25365.37547443 -.00000125  00000+0 -38642-4 0  9996
2 22220  71.0012 332.2752 0013892 209.0215 312.8592 14.16845793712151
COSMOS 2221             
1 22236U 92080A   25365.41485566  .00004254  00000+0  37763-3 0  9997
2 22236  82.5041 344.4485 0016181  64.9149 295.3750 14.95848563770580
SL-16 R/B               
1 22285U 92093B   25365.47186497 -.00000156  00000+0 -55773-4 0  9993
2 22285  71.0212 147.4739 0002839  16.6286 343.4929 14.15434755703508
COSMOS 2228             
1 22286U 92094A   25365.47578825  .00003899  00000+0  33713-3 0  9999
2 22286  82.5189 302.6071 0018237 165.8835 194.2901 14.96830611765857
SL-16 R/B               
1 22566U 93016B   25365.43481389  .00000040  00000+0  45126-4 0  9996
2 22566  71.0088 358.5373 0008060  59.8347 300.3573 14.15295470692513
COSMOS 2242             
1 22626U 93024A   25365.42911647  .00003623  00000+0  31839-3 0  9991
2 22626  82.5192 331.9799 0016527 168.6761 191.4836 14.96197067770189
SL-16 R/B               
1 22803U 93059B   25365.50691894  .00000071  00000+0  59041-4 0  9994
2 22803  70.9899 154.9112 0018986 309.1787  50.7649 14.17219354669873
ARIANE 40 R/B           
1 22830U 93061H   25365.19388833  .00000515  00000+0  20438-3 0  9998
2 22830  98.5049  70.3858 0011691 124.5023 235.7267 14.32815620684291
COSMOS 2278             
1 23087U 94023A   25365.27806525  .00000386  00000+0  22633-3 0  9999
2 23087  71.0539 318.2245 0007556 145.9146 214.2463 14.14352134635133
SL-16 R/B               
1 23088U 94023B   25365.28492534  .00000051  00000+0  51094-4 0  9995
2 23088  70.9972 214.5408 0002388 357.7389   2.3722 14.14998643636419
SL-16 R/B               
1 23343U 94074B   25365.33427520  .00000937  00000+0  13242-3 0  9999
2 23343  97.7185  33.8980 0008046  85.3530 285.4396 14.79314122677143
SL-16 R/B               
1 23405U 94077B   25365.50521267 -.00000208  00000+0 -81918-4 0  9992
2 23405  70.9827 135.9367 0005026 269.0168  91.0379 14.15550414606582
ARIANE 40+ R/B          
1 23561U 95021B   25365.42208108  .00000612  00000+0  20928-3 0  9992
2 23561  98.4627  72.7835 0006492 355.9527  14.8379 14.39711984609424
SL-16 R/B               
1 23705U 95058B   25365.29684567  .00000199  00000+0  12631-3 0  9996
2 23705  71.0221 323.8432 0014359 230.3305 129.6552 14.15482422558174
SL-16 R/B               
1 24298U 96051B   25365.32730230  .00000042  00000+0  49463-4 0  9992
2 24298  70.7598 319.9390 0019428 238.5420 121.3801 14.12398648511992
ORBVIEW 2 (SEASTAR)     
1 24883U 97037A   25365.45696659  .00000654  00000+0  24406-3 0  9995
2 24883  98.8469 163.0041 0001271 254.0383 106.0661 14.35433458498687
SL-16 R/B               
1 25400U 98043G   25365.46214939  .00000155  00000+0  83673-4 0  9995
2 25400  98.8149 313.3874 0009290 207.1118 152.9577 14.26030729429264
SL-16 R/B               
1 25407U 98045B   25365.34139742  .00000088  00000+0  68300-4 0  9994
2 25407  71.0126 325.3071 0005754 145.4357 214.7141 14.16181469417427
ISS (ZARYA)             
1 25544U 98067A   25365.43607933  .00015147  00000+0  28262-3 0  9996
2 25544  51.6331  49.8878 0007506 323.8065  36.2414 15.48972750545754
CZ-4B R/B               
1 25732U 99025C   25365.36442097  .00000158  00000+0  96962-4 0  9999
2 25732  98.6742  46.2254 0037150 179.9085 191.2233 14.18248686378484
OKEAN-O                 
1 25860U 99039A   25365.51492512  .00001439  00000+0  19625-3 0  9993
2 25860  97.9577  61.0520 0001308 114.5182 245.6167 14.80198768424301
SL-16 R/B               
1 25861U 99039B   25365.42447322  .00001178  00000+0  15639-3 0  9994
2 25861  98.0100  59.5745 0015998 116.8586 243.4264 14.81617720426750
DELTA 2 R/B             
1 25876U 99041E   25365.05277140  .00003222  00000+0  55595-3 0  9998
2 25876  51.7593 215.3397 0504275 145.7402 217.7169 14.11463778353338
HELIOS 1B               
1 25977U 99064A   25365.30436457  .00003406  00000+0  38329-3 0  9991
2 25977  98.1753 260.5208 0000561  33.3359 326.7892 14.87367860675090
TERRA                   
1 25994U 99068A   25365.44436439  .00000910  00000+0  19488-3 0  9991
2 25994  97.9723  56.4399 0003202  56.6086  68.1989 14.60926137385110
SL-16 R/B               
1 26070U 00006B   25365.12708867  .00000337  00000+0  19551-3 0  9997
2 26070  71.0013 241.9971 0018707 283.8550  76.0492 14.15812639338851
TITAN 4B R/B            
1 26474U 00047B   25365.43663807  .00005712  00000+0  36341-3 0  9996
2 26474  67.9889 232.3403 0037689 121.7749 238.7081 15.08931393382614
ENVISAT                 
1 27386U 02009A   25364.37958830  .00000257  00000+0  97010-4 0  9994
2 27386  98.3625 314.6753 0001115  88.2338  83.3691 14.39006569249200
IDEFIX & ARIANE 42P R/B 
1 27422U 02021B   25365.39258358  .00000625  00000+0  25415-3 0  9998
2 27422  98.5807 299.8434 0012494  32.8690 327.3267 14.30966668234258
AQUA                    
1 27424U 02022A   25364.96158943  .00001951  00000+0  40088-3 0  9998
2 27424  98.4061 326.1389 0001917  95.3187 305.7939 14.61780362258696
CZ-4B R/B               
1 27432U 02024C   25365.38048163  .00000138  00000+0  94065-4 0  9999
2 27432  98.8972  54.0847 0049632 216.1646 155.6847 14.14532401219587
MIDORI II (ADEOS-II)    
1 27597U 02056A   25365.47764368  .00000665  00000+0  27957-3 0  9998
2 27597  98.7661 318.5347 0001122 139.0541 221.0725 14.29222062200550
H-2A R/B                
1 27601U 02056E   25365.53399839  .00000796  00000+0  29360-3 0  9993
2 27601  98.3090 323.5451 0070517   5.7034 106.3018 14.33696381204345
CZ-4B R/B               
1 28059U 03049C   25365.50807522  .00000878  00000+0  21261-3 0  9997
2 28059  98.6802 352.7823 0049338  79.9901 280.6857 14.54931149176686
CZ-2C R/B               
1 28222U 04012C   25365.19374808  .00056659  00000+0  77604-3 0  9991
2 28222  97.7394  59.3563 0016703 199.1689 160.8939 15.57052218193597
SL-16 R/B               
1 28353U 04021B   25365.50201851  .00000433  00000+0  24988-3 0  9994
2 28353  71.0010  15.5903 0004224 168.3881 191.7339 14.14584397113196
CZ-4B R/B               
1 28415U 04035C   25365.36209828  .00013246  00000+0  48417-3 0  9993
2 28415  97.3592  35.4598 0032159 208.4306 151.5180 15.27713701169476
CZ-2C R/B               
1 28480U 04046B   25365.40027914  .00000573  00000+0  22802-3 0  9995
2 28480  98.1998 279.6196 0139509 357.3271   2.7150 14.26954895 98761
